QIANFAN-41              
1 62242U 24232F   25286.62168788  .00000169  00000+0  24247-3 0  9995
2 62242  89.0019  47.2500 0013846  12.5791 347.5703 13.50977058 91138
QIANFAN-42              
1 62243U 24232G   25286.64058243  .00000703  00000+0  29777-3 0  9999
2 62243  89.0017  44.2071 0012839 281.6330  78.3421 14.24389406 92814
QIANFAN-43              
1 62244U 24232H   25286.61760692  .00000164  00000+0  23545-3 0  9993
2 62244  89.0024  47.3130 0015516  17.1240 343.0432 13.50978125 59749
QIANFAN-44              
1 62245U 24232J   25286.60519903  .00000147  00000+0  20946-3 0  9993
2 62245  89.0023  47.1260 0013661  15.1112 345.0444 13.50979375 91217
QIANFAN-45              
1 62246U 24232K   25286.57234141  .00000151  00000+0  21592-3 0  9991
2 62246  89.0023  47.2737 0014296  14.5281 345.6278 13.50976001 91138
QIANFAN-46              
1 62247U 24232L   25286.59700316  .00000157  00000+0  22530-3 0  9995
2 62247  89.0022  47.3427 0014543  19.8651 340.3063 13.50976636 91092
QIANFAN-47              
1 62248U 24232M   25286.60113608  .00000157  00000+0  22463-3 0  9995
2 62248  89.0018  47.2776 0014938  18.7976 341.3724 13.50978400 91120
QIANFAN-48              
1 62249U 24232N   25286.63822723  .00000156  00000+0  22371-3 0  9991
2 62249  89.0021  47.2734 0017245  20.3671 339.8164 13.50974308 91138
